COSMOS 2433 (720)       
1 32275U 07052A   22170.69702193 -.00000064  00000+0  00000+0 0  9991
2 32275  66.0817   4.5947 0000461 181.7308   0.2459  2.13104264114017
COSMOS 2432 (719)       
1 32276U 07052B   22170.20239111 -.00000064  00000+0  00000+0 0  9994
2 32276  66.0929   4.7134 0009450 342.4169 128.4224  2.13103482114003
COSMOS 2434 (721)       
1 32393U 07065A   22170.59633866 -.00000003  00000+0  00000+0 0  9998
2 32393  64.3856 241.3556 0001687 108.7553 245.5518  2.13103272112714
COSMOS 2436 (723)       
1 32395U 07065C   22170.43174479 -.00000002  00000+0  00000+0 0  9992
2 32395  64.3906 241.4164 0014738 357.4498   6.4700  2.13103071112657
COSMOS 2456 (730)       
1 36111U 09070A   22170.62602488  .00000037  00000+0  00000+0 0  9994
2 36111  64.3547 120.9799 0005862 306.3564 236.2612  2.13099301 97385
COSMOS 2457 (733)       
1 36112U 09070B   22170.16629045  .00000037  00000+0  00000+0 0  9992
2 36112  64.3377 120.8716 0003952 193.8150 123.4183  2.13101501 97378
COSMOS 2461 (735)       
1 36401U 10007B   22170.68446821 -.00000063  00000+0  00000+0 0  9991
2 36401  65.9685   3.4337 0021150  12.9078  16.8648  2.13103844 95745
COSMOS 2460 (732)       
1 36402U 10007C   22170.40045227 -.00000063  00000+0  00000+0 0  9997
2 36402  65.9560   3.3938 0002725  78.6739  41.6406  2.13106296 95735
COSMOS 2464 (736)       
1 37139U 10041C   22170.36819911 -.00000001  00000+0  00000+0 0  9999
2 37139  63.9822 240.4358 0028193   9.1155  28.3814  2.13100870 91799
COSMOS 2476 (744)       
1 37867U 11064A   22170.70568925  .00000040  00000+0  00000+0 0  9999
2 37867  64.6430 122.3343 0022830 241.1885 268.0791  2.13101887 82732
COSMOS 2477 (745)       
1 37868U 11064B   22170.32771882  .00000040  00000+0  00000+0 0  9996
2 37868  64.6509 122.4113 0020194 242.6638 154.7514  2.13101822 82686
COSMOS 2475 (743)       
1 37869U 11064C   22170.37092683  .00000040  00000+0  00000+0 0  9997
2 37869  64.6583 122.4185 0024779 258.6572 129.9153  2.13102107 82696
COSMOS 2485 (747)       
1 39155U 13019A   22170.68835588  .00000041  00000+0  00000+0 0  9993
2 39155  64.8070 122.7634 0023124 237.0661 303.2934  2.13102003 71208
COSMOS 2492 (754)       
1 39620U 14012A   22170.40535333 -.00000063  00000+0  00000+0 0  9994
2 39620  65.8425   3.0739 0012165 334.5519  23.1844  2.13103300 64149
COSMOS 2500 (755)       
1 40001U 14032A   22170.26796772 -.00000064  00000+0  00000+0 0  9992
2 40001  65.7786   2.9401 0005023 179.3096 291.6909  2.13102479 62369
COSMOS 2501 (702K)      
1 40315U 14075A   22170.38106326 -.00000002  00000+0  00000+0 0  9992
2 40315  63.6898 241.1027 0018648 209.3548 156.4058  2.13101610 58771
COSMOS 2514 (751)       
1 41330U 16008A   22169.88365441 -.00000064  00000+0  00000+0 0  9994
2 41330  65.5814   2.6437 0008670 198.7329 161.2651  2.13102712 49525
COSMOS 2516 (753)       
1 41554U 16032A   22170.47745331 -.00000003  00000+0  00000+0 0  9999
2 41554  63.9153 241.3762 0014562 215.4701 142.8357  2.13106499 47131
COSMOS 2522 (752)       
1 42939U 17055A   22170.19285459  .00000000  00000+0  00000+0 0  9998
2 42939  64.1496 241.7823 0008718 241.2317 115.4998  2.13101828 36888
COSMOS 2527 (756)       
1 43508U 18053A   22170.39841133  .00000041  00000+0  00000+0 0  9994
2 43508  64.9708 122.7734 0009352 242.8923 303.6515  2.13102578 31186
COSMOS 2529 (757)       
1 43687U 18086A   22170.79332544 -.00000006  00000+0  00000+0 0  9995
2 43687  64.3642 242.0780 0010223 263.6488 149.2790  2.13102246 28219
COSMOS 2534 (758)       
1 44299U 19030A   22170.48854362 -.00000003  00000+0  00000+0 0  9995
2 44299  64.4369 241.9730 0012634 283.8190  29.8662  2.13102125 23842
COSMOS 2544 (759)       
1 44850U 19088A   22170.80315127  .00000041  00000+0  16595+1 0  9996
2 44850  64.9557 122.6130 0014155 264.2412 276.2726  2.13102358 19626
COSMOS 2545 (760)       
1 45358U 20018A   22170.76662830 -.00000066  00000+0  00000+0 0  9997
2 45358  64.9181   3.2209 0006365 245.5356 116.4281  2.13102732 17587
COSMOS 2547 (705K)      
1 46805U 20075A   22170.44273348 -.00000002  00000+0  00000+0 0  9995
2 46805  64.6588 241.3993 0007492 243.3837  82.8644  2.13103336 12811
